$$SOE
2461295.500000000, A.D. 2026-Sep-12 00:00:00.0000, -4.641934961305316E+08, 1.370101156686914E+08, -5.903035695910771E+07,
2461302.500000000, A.D. 2026-Sep-19 00:00:00.0000, -4.663241365691618E+08, 1.277612220360548E+08, -5.992487562448919E+07,
2461309.500000000, A.D. 2026-Sep-26 00:00:00.0000, -4.682590295669829E+08, 1.184588457241414E+08, -6.079421327784590E+07,
2461316.500000000, A.D. 2026-Oct-03 00:00:00.0000, -4.699968954358472E+08, 1.091067666971229E+08, -6.163794445882437E+07,
2461323.500000000, A.D. 2026-Oct-10 00:00:00.0000, -4.715365097780683E+08, 9.970879896860644E+07, -6.245564972014070E+07,
2461330.500000000, A.D. 2026-Oct-17 00:00:00.0000, -4.728767043350748E+08, 9.026879059632927E+07, -6.324691574204934E+07,
2461337.500000000, A.D. 2026-Oct-24 00:00:00.0000, -4.740163678848097E+08, 8.079062356997168E+07, -6.401133546074399E+07,
2461344.500000000, A.D. 2026-Oct-31 00:00:00.0000, -4.749544470894920E+08, 7.127821352361485E+07, -6.474850822522154E+07,
2461351.500000000, A.D. 2026-Nov-07 00:00:00.0000, -4.756899469549778E+08, 6.173550934508470E+07, -6.545804000761470E+07,
2461358.500000000, A.D. 2026-Nov-14 00:00:00.0000, -4.762219307009134E+08, 5.216649356756385E+07, -6.613954361276171E+07,
2461365.500000000, A.D. 2026-Nov-21 00:00:00.0000, -4.765495208537000E+08, 4.257518422286867E+07, -6.679263866503809E+07,
2461372.500000000, A.D. 2026-Nov-28 00:00:00.0000, -4.766719025618227E+08, 3.296563514595693E+07, -6.741695152702369E+07,
2461379.500000000, A.D. 2026-Dec-05 00:00:00.0000, -4.765883255152018E+08, 2.334193407310583E+07, -6.801211553578804E+07,
2461386.500000000, A.D. 2026-Dec-12 00:00:00.0000, -4.762981043026204E+08, 1.370820164316378E+07, -6.857777131712110E+07,
2461393.500000000, A.D. 2026-Dec-19 00:00:00.0000, -4.758006190937372E+08, 4.068591305147581E+06, -6.911356700369994E+07,
2461400.500000000, A.D. 2026-Dec-26 00:00:00.0000, -4.750953167890742E+08, -5.572710739013884E+06, -6.961915841534081E+07,
2461407.500000000, A.D. 2027-Jan-02 00:00:00.0000, -4.741817123635790E+08, -1.521148574990976E+07, -7.009420924263793E+07,
2461414.500000000, A.D. 2027-Jan-09 00:00:00.0000, -4.730593902880024E+08, -2.484348280624977E+07, -7.053839124331051E+07,
2461421.500000000, A.D. 2027-Jan-16 00:00:00.0000, -4.717280059938830E+08, -3.446441929400495E+07, -7.095138445391141E+07,
2461428.500000000, A.D. 2027-Jan-23 00:00:00.0000, -4.701872873371443E+08, -4.406998157083645E+07, -7.133287742436470E+07,
2461435.500000000, A.D. 2027-Jan-30 00:00:00.0000, -4.684370358730713E+08, -5.365582585575610E+07, -7.168256749625719E+07,
2461442.500000000, A.D. 2027-Feb-06 00:00:00.0000, -4.664771275177050E+08, -6.321757900659103E+07, -7.200016113564190E+07,
2461449.500000000, A.D. 2027-Feb-13 00:00:00.0000, -4.643075130552871E+08, -7.275083796915929E+07, -7.228537417804849E+07,
2461456.500000000, A.D. 2027-Feb-20 00:00:00.0000, -4.619282208556944E+08, -8.225116869399402E+07, -7.253793183369440E+07,
2461463.500000000, A.D. 2027-Feb-27 00:00:00.0000, -4.593393604081203E+08, -9.171410773914081E+07, -7.275756884465371E+07,
2461470.500000000, A.D. 2027-Mar-06 00:00:00.0000, -4.565411236551453E+08, -1.011351646393794E+08, -7.294402991479763E+07,
2461477.500000000, A.D. 2027-Mar-13 00:00:00.0000, -4.535337857272487E+08, -1.105098229944070E+08, -7.309707009860137E+07,
2461484.500000000, A.D. 2027-Mar-20 00:00:00.0000, -4.503177062059746E+08, -1.198335411134048E+08, -7.321645511361630E+07,
2461491.500000000, A.D. 2027-Mar-27 00:00:00.0000, -4.468933307128555E+08, -1.291017527680396E+08, -7.330196164031091E+07,
2461498.500000000, A.D. 2027-Apr-03 00:00:00.0000, -4.432611926200571E+08, -1.383098681044396E+08, -7.335337763192806E+07,
2461505.500000000, A.D. 2027-Apr-10 00:00:00.0000, -4.394219148195483E+08, -1.474532746938402E+08, -7.337050263788202E+07,
2461512.500000000, A.D. 2027-Apr-17 00:00:00.0000, -4.353762115261308E+08, -1.565273387393883E+08, -7.335314814349744E+07,
2461519.500000000, A.D. 2027-Apr-24 00:00:00.0000, -4.311248900323424E+08, -1.655274065049520E+08, -7.330113793805942E+07,
2461526.500000000, A.D. 2027-May-01 00:00:00.0000, -4.266688521129229E+08, -1.744488059421428E+08, -7.321430853611040E+07,
2461533.500000000, A.D. 2027-May-08 00:00:00.0000, -4.220090947687871E+08, -1.832868477712260E+08, -7.309250961882429E+07,
2461540.500000000, A.D. 2027-May-15 00:00:00.0000, -4.171467118044561E+08, -1.920368250665996E+08, -7.293560428007115E+07,
2461547.500000000, A.D. 2027-May-22 00:00:00.0000, -4.120828978001951E+08, -2.006940139430994E+08, -7.274346914564116E+07,
2461554.500000000, A.D. 2027-May-29 00:00:00.0000, -4.068189511216142E+08, -2.092536768160146E+08, -7.251599479383664E+07,
2461561.500000000, A.D. 2027-Jun-05 00:00:00.0000, -4.013562750800380E+08, -2.177110651061640E+08, -7.225308630257758E+07,
2461568.500000000, A.D. 2027-Jun-12 00:00:00.0000, -3.956963792472038E+08, -2.260614209607275E+08, -7.195466370284484E+07,
2461575.500000000, A.D. 2027-Jun-19 00:00:00.0000, -3.898408812504645E+08, -2.342999789281920E+08, -7.162066238371462E+07,
2461582.500000000, A.D. 2027-Jun-26 00:00:00.0000, -3.837915087646244E+08, -2.424219678528360E+08, -7.125103349546385E+07,
2461589.500000000, A.D. 2027-Jul-03 00:00:00.0000, -3.775501015642037E+08, -2.504226129844663E+08, -7.084574436175175E+07,
2461596.500000000, A.D. 2027-Jul-10 00:00:00.0000, -3.711186135949580E+08, -2.582971382982599E+08, -7.040477890293029E+07,
2461603.500000000, A.D. 2027-Jul-17 00:00:00.0000, -3.644991150233802E+08, -2.660407690669107E+08, -6.992813807618316E+07,
2461610.500000000, A.D. 2027-Jul-24 00:00:00.0000, -3.576937941023471E+08, -2.736487347511740E+08, -6.941584035108097E+07,
2461617.500000000, A.D. 2027-Jul-31 00:00:00.0000, -3.507049584356971E+08, -2.811162719764639E+08, -6.886792223810752E+07,
2461624.500000000, A.D. 2027-Aug-07 00:00:00.0000, -3.435350358361127E+08, -2.884386264466181E+08, -6.828443875660995E+07,
2461631.500000000, A.D. 2027-Aug-14 00:00:00.0000, -3.361865770701808E+08, -2.956110540508803E+08, -6.766546365078673E+07,
2461638.500000000, A.D. 2027-Aug-21 00:00:00.0000, -3.286622598652101E+08, -3.026288245319106E+08, -6.701108968470597E+07,
2461645.500000000, A.D. 2027-Aug-28 00:00:00.0000, -3.209648907406964E+08, -3.094872265155159E+08, -6.632142923239788E+07,
2461652.500000000, A.D. 2027-Sep-04 00:00:00.0000, -3.130974058392263E+08, -3.161815714022161E+08, -6.559661484955652E+07,
2461659.500000000, A.D. 2027-Sep-11 00:00:00.0000, -3.050628721443567E+08, -3.227071967833444E+08, -6.483679975193658E+07,
2461666.500000000, A.D. 2027-Sep-18 00:00:00.0000, -2.968644889437299E+08, -3.290594700331842E+08, -6.404215826484004E+07,
2461673.500000000, A.D. 2027-Sep-25 00:00:00.0000, -2.885055893000160E+08, -3.352337921561292E+08, -6.321288627023633E+07,
2461680.500000000, A.D. 2027-Oct-02 00:00:00.0000, -2.799896414463738E+08, -3.412256018619976E+08, -6.234920165529367E+07,
2461687.500000000, A.D. 2027-Oct-09 00:00:00.0000, -2.713202500753056E+08, -3.470303798732470E+08, -6.145134476344983E+07,
2461694.500000000, A.D. 2027-Oct-16 00:00:00.0000, -2.625011574476809E+08, -3.526436535169655E+08, -6.051957885647671E+07,
2461701.500000000, A.D. 2027-Oct-23 00:00:00.0000, -2.535362440504355E+08, -3.580610016051660E+08, -5.955419060985059E+07,
2461708.500000000, A.D. 2027-Oct-30 00:00:00.0000, -2.444295284159670E+08, -3.632780589916706E+08, -5.855549062421905E+07,
2461715.500000000, A.D. 2027-Nov-06 00:00:00.0000, -2.351851672547644E+08, -3.682905196765455E+08, -5.752381375277083E+07,
2461722.500000000, A.D. 2027-Nov-13 00:00:00.0000, -2.258074578753698E+08, -3.730941405332813E+08, -5.645951923104998E+07,
2461729.500000000, A.D. 2027-Nov-20 00:00:00.0000, -2.163008399795915E+08, -3.776847478438027E+08, -5.536299105310847E+07,
2461736.500000000, A.D. 2027-Nov-27 00:00:00.0000, -2.066698952063747E+08, -3.820582436749853E+08, -5.423463849884789E+07,
2461743.500000000, A.D. 2027-Dec-04 00:00:00.0000, -1.969193464382502E+08, -3.862106111782441E+08, -5.307489655026075E+07,
2461750.500000000, A.D. 2027-Dec-11 00:00:00.0000, -1.870540574098875E+08, -3.901379197697331E+08, -5.188422622237019E+07,
2461757.500000000, A.D. 2027-Dec-18 00:00:00.0000, -1.770790323316926E+08, -3.938363305229460E+08, -5.066311485920551E+07,
2461764.500000000, A.D. 2027-Dec-25 00:00:00.0000, -1.669994153638425E+08, -3.973021017683156E+08, -4.941207640647432E+07,
2461771.500000000, A.D. 2028-Jan-01 00:00:00.0000, -1.568204898869058E+08, -4.005315948776838E+08, -4.813165166128302E+07,
$$EOE